{
"type": "FeatureCollection",
"name": "reeves_county_wells_2026_02",
"crs": { "type": "name", "properties": { "name": "urn:ogc:def:crs:OGC:1.3:CRS84" } },
"features": [
{ "type": "Feature", "properties": { "PERMIT_NO": "900001", "LEASE_NAME": "GUADALUPE PASS 16-15", "OPERATOR_NAME": "DIAMONDBACK ENERGY", "lat": 31.402308, "lon": -103.675998, "SPUD_DATE": "20251203", "ndvi_change_mean": -0.075667679309844971, "ndvi_change_min": -0.64855468273162842, "brightness_change_mean": 0.050570864230394363, "brightness_change_max": 0.24983511865139008, "combined_score_mean": 0.065628960728645325, "combined_score_max": 0.44228449463844299, "disturbed_pixel_count": 524, "bright_pixel_count": 597, "activity_class": "COMPLETION_RIG", "confidence": "HIGH" }, "geometry": { "type": "Point", "coordinates": [ -103.675998, 31.402308 ] } },
{ "type": "Feature", "properties": { "PERMIT_NO": "900002", "LEASE_NAME": "BELL CANYON 02-36", "OPERATOR_NAME": "DIAMONDBACK ENERGY", "lat": 31.314991, "lon": -103.642774, "SPUD_DATE": "20260209", "ndvi_change_mean": -0.101339191198349, "ndvi_change_min": -0.49634259939193726, "brightness_change_mean": 0.071893483400344849, "brightness_change_max": 0.24379269778728485, "combined_score_mean": 0.089560911059379578, "combined_score_max": 0.36011040210723877, "disturbed_pixel_count": 661, "bright_pixel_count": 853, "activity_class": "DRILLING_RIG", "confidence": "HIGH" }, "geometry": { "type": "Point", "coordinates": [ -103.642774, 31.314991 ] } },
{ "type": "Feature", "properties": { "PERMIT_NO": "900003", "LEASE_NAME": "DELAWARE MOUNTAIN 45-28", "OPERATOR_NAME": "DIAMONDBACK ENERGY", "lat": 31.439088, "lon": -103.558591, "SPUD_DATE": "20251231", "ndvi_change_mean": -0.0031532095745205879, "ndvi_change_min": -0.39749604463577271, "brightness_change_mean": 0.00028720099362544715, "brightness_change_max": 0.054496437311172485, "combined_score_mean": 0.0020068062003701925, "combined_score_max": 0.24822118878364563, "disturbed_pixel_count": 182, "bright_pixel_count": 0, "activity_class": "COMPLETION_RIG", "confidence": "HIGH" }, "geometry": { "type": "Point", "coordinates": [ -103.558591, 31.439088 ] } },
{ "type": "Feature", "properties": { "PERMIT_NO": "900004", "LEASE_NAME": "FIRST BONE 23-39", "OPERATOR_NAME": "DIAMONDBACK ENERGY", "lat": 31.314839, "lon": -103.664525, "SPUD_DATE": "20260213", "ndvi_change_mean": -0.10754571855068207, "ndvi_change_min": -0.56807351112365723, "brightness_change_mean": 0.071839019656181335, "brightness_change_max": 0.2482345849275589, "combined_score_mean": 0.093263037502765656, "combined_score_max": 0.40399441123008728, "disturbed_pixel_count": 695, "bright_pixel_count": 844, "activity_class": "DRILLING_RIG", "confidence": "HIGH" }, "geometry": { "type": "Point", "coordinates": [ -103.664525, 31.314839 ] } },
{ "type": "Feature", "properties": { "PERMIT_NO": "900005", "LEASE_NAME": "BELL CANYON 24-37", "OPERATOR_NAME": "DIAMONDBACK ENERGY", "lat": 31.388327, "lon": -103.547295, "SPUD_DATE": null, "ndvi_change_mean": -0.001086660660803318, "ndvi_change_min": -0.54675459861755371, "brightness_change_mean": -0.00064121646573767066, "brightness_change_max": 0.051688574254512787, "combined_score_mean": 0.00039550996734760702, "combined_score_max": 0.34782034158706665, "disturbed_pixel_count": 191, "bright_pixel_count": 0, "activity_class": "PAD_CONSTRUCTION", "confidence": "LOW" }, "geometry": { "type": "Point", "coordinates": [ -103.547295, 31.388327 ] } },
{ "type": "Feature", "properties": { "PERMIT_NO": "900006", "LEASE_NAME": "BONE SPRING 07-25", "OPERATOR_NAME": "DIAMONDBACK ENERGY", "lat": 31.346302, "lon": -103.667233, "SPUD_DATE": null, "ndvi_change_mean": 0.0015537051949650049, "ndvi_change_min": -0.42012065649032593, "brightness_change_mean": 0.00021472420485224575, "brightness_change_max": 0.048161908984184265, "combined_score_mean": -0.0008463333360850811, "combined_score_max": 0.26496818661689758, "disturbed_pixel_count": 184, "bright_pixel_count": 0, "activity_class": "PAD_CONSTRUCTION", "confidence": "LOW" }, "geometry": { "type": "Point", "coordinates": [ -103.667233, 31.346302 ] } },
{ "type": "Feature", "properties": { "PERMIT_NO": "900007", "LEASE_NAME": "GUADALUPE PASS 45-60", "OPERATOR_NAME": "DIAMONDBACK ENERGY", "lat": 31.359229, "lon": -103.646479, "SPUD_DATE": null, "ndvi_change_mean": -0.0085821561515331268, "ndvi_change_min": -0.53742444515228271, "brightness_change_mean": 0.0007550101145170629, "brightness_change_max": 0.058712437748908997, "combined_score_mean": 0.0054512978531420231, "combined_score_max": 0.33652469515800476, "disturbed_pixel_count": 196, "bright_pixel_count": 0, "activity_class": "PAD_CONSTRUCTION", "confidence": "LOW" }, "geometry": { "type": "Point", "coordinates": [ -103.646479, 31.359229 ] } },
{ "type": "Feature", "properties": { "PERMIT_NO": "900008", "LEASE_NAME": "CHERRY CANYON 45-36", "OPERATOR_NAME": "DIAMONDBACK ENERGY", "lat": 31.373962, "lon": -103.636808, "SPUD_DATE": "20260123", "ndvi_change_mean": -0.14823633432388306, "ndvi_change_min": -0.47713249921798706, "brightness_change_mean": 0.099959090352058411, "brightness_change_max": 0.25208956003189087, "combined_score_mean": 0.12892544269561768, "combined_score_max": 0.34020492434501648, "disturbed_pixel_count": 863, "bright_pixel_count": 1196, "activity_class": "COMPLETION_RIG", "confidence": "HIGH" }, "geometry": { "type": "Point", "coordinates": [ -103.636808, 31.373962 ] } },
{ "type": "Feature", "properties": { "PERMIT_NO": "900009", "LEASE_NAME": "MENTONE 46-21", "OPERATOR_NAME": "DIAMONDBACK ENERGY", "lat": 31.342839, "lon": -103.646243, "SPUD_DATE": null, "ndvi_change_mean": -0.0041530816815793514, "ndvi_change_min": -0.42864036560058594, "brightness_change_mean": 2.4811699404381216e-05, "brightness_change_max": 0.048846393823623657, "combined_score_mean": 0.002501774113625288, "combined_score_max": 0.26354244351387024, "disturbed_pixel_count": 200, "bright_pixel_count": 0, "activity_class": "PAD_CONSTRUCTION", "confidence": "LOW" }, "geometry": { "type": "Point", "coordinates": [ -103.646243, 31.342839 ] } },
{ "type": "Feature", "properties": { "PERMIT_NO": "900010", "LEASE_NAME": "BONE SPRING 48-36", "OPERATOR_NAME": "DIAMONDBACK ENERGY", "lat": 31.373416, "lon": -103.637619, "SPUD_DATE": "20260113", "ndvi_change_mean": -0.12975804507732391, "ndvi_change_min": -0.46018099784851074, "brightness_change_mean": 0.088907048106193542, "brightness_change_max": 0.25208956003189087, "combined_score_mean": 0.11341764777898788, "combined_score_max": 0.33600744605064392, "disturbed_pixel_count": 776, "bright_pixel_count": 1057, "activity_class": "COMPLETION_RIG", "confidence": "HIGH" }, "geometry": { "type": "Point", "coordinates": [ -103.637619, 31.373416 ] } },
{ "type": "Feature", "properties": { "PERMIT_NO": "900011", "LEASE_NAME": "STATE 08-10", "OPERATOR_NAME": "DIAMONDBACK ENERGY", "lat": 31.381524, "lon": -103.665454, "SPUD_DATE": "20251206", "ndvi_change_mean": 0.0011771513381972909, "ndvi_change_min": -0.36429417133331299, "brightness_change_mean": 0.00028983154334127903, "brightness_change_max": 0.050579264760017395, "combined_score_mean": -0.00059035792946815491, "combined_score_max": 0.23154078423976898, "disturbed_pixel_count": 177, "bright_pixel_count": 0, "activity_class": "COMPLETION_RIG", "confidence": "HIGH" }, "geometry": { "type": "Point", "coordinates": [ -103.665454, 31.381524 ] } },
{ "type": "Feature", "properties": { "PERMIT_NO": "900012", "LEASE_NAME": "UNIVERSITY LANDS 44-47", "OPERATOR_NAME": "DIAMONDBACK ENERGY", "lat": 31.340226, "lon": -103.591484, "SPUD_DATE": "20260115", "ndvi_change_mean": -0.10707198828458786, "ndvi_change_min": -0.52921712398529053, "brightness_change_mean": 0.072342723608016968, "brightness_change_max": 0.24458761513233185, "combined_score_mean": 0.093180283904075623, "combined_score_max": 0.37692037224769592, "disturbed_pixel_count": 673, "bright_pixel_count": 847, "activity_class": "COMPLETION_RIG", "confidence": "HIGH" }, "geometry": { "type": "Point", "coordinates": [ -103.591484, 31.340226 ] } },
{ "type": "Feature", "properties": { "PERMIT_NO": "900013", "LEASE_NAME": "THIRD BONE 47-17", "OPERATOR_NAME": "DIAMONDBACK ENERGY", "lat": 31.325305, "lon": -103.679481, "SPUD_DATE": "20260126", "ndvi_change_mean": -0.10839681327342987, "ndvi_change_min": -0.48342078924179077, "brightness_change_mean": 0.071785643696784973, "brightness_change_max": 0.2453605979681015, "combined_score_mean": 0.093752346932888031, "combined_score_max": 0.35891196131706238, "disturbed_pixel_count": 670, "bright_pixel_count": 846, "activity_class": "DRILLING_RIG", "confidence": "HIGH" }, "geometry": { "type": "Point", "coordinates": [ -103.679481, 31.325305 ] } },
{ "type": "Feature", "properties": { "PERMIT_NO": "900014", "LEASE_NAME": "UPPER WOLFCAMP 11-35", "OPERATOR_NAME": "DIAMONDBACK ENERGY", "lat": 31.397435, "lon": -103.655546, "SPUD_DATE": "20251101", "ndvi_change_mean": 0.0026040179654955864, "ndvi_change_min": -0.40621194243431091, "brightness_change_mean": 0.00026013606111519039, "brightness_change_max": 0.055921941995620728, "combined_score_mean": -0.0014583560405299067, "combined_score_max": 0.26080483198165894, "disturbed_pixel_count": 166, "bright_pixel_count": 0, "activity_class": "COMPLETION_RIG", "confidence": "HIGH" }, "geometry": { "type": "Point", "coordinates": [ -103.655546, 31.397435 ] } },
{ "type": "Feature", "properties": { "PERMIT_NO": "900015", "LEASE_NAME": "BONE SPRING 37-06", "OPERATOR_NAME": "DIAMONDBACK ENERGY", "lat": 31.429084, "lon": -103.641688, "SPUD_DATE": null, "ndvi_change_mean": 0.00045150742516852915, "ndvi_change_min": -0.36618149280548096, "brightness_change_mean": -0.0001657855900702998, "brightness_change_max": 0.045045092701911926, "combined_score_mean": -0.00033721877844072878, "combined_score_max": 0.22741158306598663, "disturbed_pixel_count": 180, "bright_pixel_count": 0, "activity_class": "PAD_CONSTRUCTION", "confidence": "LOW" }, "geometry": { "type": "Point", "coordinates": [ -103.641688, 31.429084 ] } },
{ "type": "Feature", "properties": { "PERMIT_NO": "900016", "LEASE_NAME": "APACHE DRAW 36-11", "OPERATOR_NAME": "DIAMONDBACK ENERGY", "lat": 31.422534, "lon": -103.659457, "SPUD_DATE": null, "ndvi_change_mean": -0.0023245736956596375, "ndvi_change_min": -0.56831926107406616, "brightness_change_mean": -0.00065599707886576653, "brightness_change_max": 0.052810586988925934, "combined_score_mean": 0.0011323452927172184, "combined_score_max": 0.34925523400306702, "disturbed_pixel_count": 182, "bright_pixel_count": 0, "activity_class": "PAD_CONSTRUCTION", "confidence": "LOW" }, "geometry": { "type": "Point", "coordinates": [ -103.659457, 31.422534 ] } },
{ "type": "Feature", "properties": { "PERMIT_NO": "900017", "LEASE_NAME": "RATTLESNAKE 26-43", "OPERATOR_NAME": "DIAMONDBACK ENERGY", "lat": 31.416789, "lon": -103.647816, "SPUD_DATE": "20260208", "ndvi_change_mean": -0.10782727599143982, "ndvi_change_min": -0.4890979528427124, "brightness_change_mean": 0.072100989520549774, "brightness_change_max": 0.24687936902046204, "combined_score_mean": 0.093536756932735443, "combined_score_max": 0.35361224412918091, "disturbed_pixel_count": 674, "bright_pixel_count": 860, "activity_class": "DRILLING_RIG", "confidence": "HIGH" }, "geometry": { "type": "Point", "coordinates": [ -103.647816, 31.416789 ] } },
{ "type": "Feature", "properties": { "PERMIT_NO": "900018", "LEASE_NAME": "CEDAR LAKE 15-38", "OPERATOR_NAME": "DIAMONDBACK ENERGY", "lat": 31.310244, "lon": -103.676635, "SPUD_DATE": null, "ndvi_change_mean": -0.0059185530990362167, "ndvi_change_min": -0.41427794098854065, "brightness_change_mean": 2.2497353711514734e-05, "brightness_change_max": 0.049605071544647217, "combined_score_mean": 0.0035601304844021797, "combined_score_max": 0.25294777750968933, "disturbed_pixel_count": 186, "bright_pixel_count": 0, "activity_class": "PAD_CONSTRUCTION", "confidence": "LOW" }, "geometry": { "type": "Point", "coordinates": [ -103.676635, 31.310244 ] } },
{ "type": "Feature", "properties": { "PERMIT_NO": "900019", "LEASE_NAME": "FIRST BONE 22-05", "OPERATOR_NAME": "APACHE CORP", "lat": 31.376631, "lon": -103.555133, "SPUD_DATE": "20260120", "ndvi_change_mean": -0.0011093700304627419, "ndvi_change_min": -0.46783602237701416, "brightness_change_mean": -1.8821772755472921e-05, "brightness_change_max": 0.050587557256221771, "combined_score_mean": 0.00065809267107397318, "combined_score_max": 0.28385099768638611, "disturbed_pixel_count": 181, "bright_pixel_count": 0, "activity_class": "COMPLETION_RIG", "confidence": "HIGH" }, "geometry": { "type": "Point", "coordinates": [ -103.555133, 31.376631 ] } },
{ "type": "Feature", "properties": { "PERMIT_NO": "900020", "LEASE_NAME": "LOWER WOLFCAMP 27-13", "OPERATOR_NAME": "APACHE CORP", "lat": 31.415627, "lon": -103.574461, "SPUD_DATE": "20260214", "ndvi_change_mean": -0.10260496288537979, "ndvi_change_min": -0.519797682762146, "brightness_change_mean": 0.071564406156539917, "brightness_change_max": 0.25399735569953918, "combined_score_mean": 0.090188734233379364, "combined_score_max": 0.37023168802261353, "disturbed_pixel_count": 643, "bright_pixel_count": 853, "activity_class": "DRILLING_RIG", "confidence": "HIGH" }, "geometry": { "type": "Point", "coordinates": [ -103.574461, 31.415627 ] } },
{ "type": "Feature", "properties": { "PERMIT_NO": "900021", "LEASE_NAME": "BRUSHY CANYON 42-42", "OPERATOR_NAME": "APACHE CORP", "lat": 31.414724, "lon": -103.583348, "SPUD_DATE": null, "ndvi_change_mean": -0.0011923472629860044, "ndvi_change_min": -0.4772208034992218, "brightness_change_mean": 0.00080693850759416819, "brightness_change_max": 0.052690520882606506, "combined_score_mean": 0.001038183574564755, "combined_score_max": 0.29850855469703674, "disturbed_pixel_count": 201, "bright_pixel_count": 0, "activity_class": "PAD_CONSTRUCTION", "confidence": "LOW" }, "geometry": { "type": "Point", "coordinates": [ -103.583348, 31.414724 ] } },
{ "type": "Feature", "properties": { "PERMIT_NO": "900022", "LEASE_NAME": "WOLFCAMP 35-29", "OPERATOR_NAME": "APACHE CORP", "lat": 31.477868, "lon": -103.660215, "SPUD_DATE": "20260113", "ndvi_change_mean": -0.10829935222864151, "ndvi_change_min": -0.51973474025726318, "brightness_change_mean": 0.072279728949069977, "brightness_change_max": 0.24356257915496826, "combined_score_mean": 0.093891508877277374, "combined_score_max": 0.36558017134666443, "disturbed_pixel_count": 684, "bright_pixel_count": 860, "activity_class": "COMPLETION_RIG", "confidence": "HIGH" }, "geometry": { "type": "Point", "coordinates": [ -103.660215, 31.477868 ] } },
{ "type": "Feature", "properties": { "PERMIT_NO": "900023", "LEASE_NAME": "FIRST BONE 36-07", "OPERATOR_NAME": "APACHE CORP", "lat": 31.487722, "lon": -103.629099, "SPUD_DATE": null, "ndvi_change_mean": 0.0048416922800242901, "ndvi_change_min": -0.38163250684738159, "brightness_change_mean": -0.00013852283882442862, "brightness_change_max": 0.065874829888343811, "combined_score_mean": -0.0029604244045913219, "combined_score_max": 0.24140465259552002, "disturbed_pixel_count": 171, "bright_pixel_count": 0, "activity_class": "PAD_CONSTRUCTION", "confidence": "LOW" }, "geometry": { "type": "Point", "coordinates": [ -103.629099, 31.487722 ] } },
{ "type": "Feature", "properties": { "PERMIT_NO": "900024", "LEASE_NAME": "APACHE DRAW 14-56", "OPERATOR_NAME": "APACHE CORP", "lat": 31.377821, "lon": -103.634974, "SPUD_DATE": "20260118", "ndvi_change_mean": -0.13254770636558533, "ndvi_change_min": -0.48313570022583008, "brightness_change_mean": 0.088588200509548187, "brightness_change_max": 0.25208956003189087, "combined_score_mean": 0.11496391147375107, "combined_score_max": 0.34020492434501648, "disturbed_pixel_count": 789, "bright_pixel_count": 1058, "activity_class": "COMPLETION_RIG", "confidence": "HIGH" }, "geometry": { "type": "Point", "coordinates": [ -103.634974, 31.377821 ] } },
{ "type": "Feature", "properties": { "PERMIT_NO": "900025", "LEASE_NAME": "RATTLESNAKE 28-45", "OPERATOR_NAME": "APACHE CORP", "lat": 31.488243, "lon": -103.574379, "SPUD_DATE": "20260107", "ndvi_change_mean": -0.10626997053623199, "ndvi_change_min": -0.53079020977020264, "brightness_change_mean": 0.072265475988388062, "brightness_change_max": 0.24140988290309906, "combined_score_mean": 0.092668168246746063, "combined_score_max": 0.38794118165969849, "disturbed_pixel_count": 676, "bright_pixel_count": 853, "activity_class": "COMPLETION_RIG", "confidence": "HIGH" }, "geometry": { "type": "Point", "coordinates": [ -103.574379, 31.488243 ] } },
{ "type": "Feature", "properties": { "PERMIT_NO": "900026", "LEASE_NAME": "TOYAH CREEK 04-04", "OPERATOR_NAME": "APACHE CORP", "lat": 31.457718, "lon": -103.690247, "SPUD_DATE": null, "ndvi_change_mean": 0.0034290563780814409, "ndvi_change_min": -0.37827619910240173, "brightness_change_mean": 0.000240935361944139, "brightness_change_max": 0.05016094446182251, "combined_score_mean": -0.0019610596355050802, "combined_score_max": 0.23783959448337555, "disturbed_pixel_count": 176, "bright_pixel_count": 0, "activity_class": "PAD_CONSTRUCTION", "confidence": "LOW" }, "geometry": { "type": "Point", "coordinates": [ -103.690247, 31.457718 ] } },
{ "type": "Feature", "properties": { "PERMIT_NO": "900027", "LEASE_NAME": "PECOS VALLEY 44-56", "OPERATOR_NAME": "APACHE CORP", "lat": 31.476215, "lon": -103.689037, "SPUD_DATE": null, "ndvi_change_mean": -0.00024226546520367265, "ndvi_change_min": -0.38623324036598206, "brightness_change_mean": -0.00082603766350075603, "brightness_change_max": 0.053792946040630341, "combined_score_mean": -0.00018505573098082095, "combined_score_max": 0.23736041784286499, "disturbed_pixel_count": 183, "bright_pixel_count": 0, "activity_class": "PAD_CONSTRUCTION", "confidence": "LOW" }, "geometry": { "type": "Point", "coordinates": [ -103.689037, 31.476215 ] } },
{ "type": "Feature", "properties": { "PERMIT_NO": "900028", "LEASE_NAME": "BELL CANYON 06-27", "OPERATOR_NAME": "APACHE CORP", "lat": 31.379394, "lon": -103.604877, "SPUD_DATE": null, "ndvi_change_mean": -0.001002879929728806, "ndvi_change_min": -0.41932493448257446, "brightness_change_mean": 0.0003370785852894187, "brightness_change_max": 0.050238907337188721, "combined_score_mean": 0.00073655962478369474, "combined_score_max": 0.25544849038124084, "disturbed_pixel_count": 198, "bright_pixel_count": 0, "activity_class": "PAD_CONSTRUCTION", "confidence": "LOW" }, "geometry": { "type": "Point", "coordinates": [ -103.604877, 31.379394 ] } },
{ "type": "Feature", "properties": { "PERMIT_NO": "900029", "LEASE_NAME": "BRUSHY CANYON 42-20", "OPERATOR_NAME": "APACHE CORP", "lat": 31.37819, "lon": -103.636674, "SPUD_DATE": "20251121", "ndvi_change_mean": -0.13818256556987762, "ndvi_change_min": -0.48313570022583008, "brightness_change_mean": 0.091725997626781464, "brightness_change_max": 0.25208956003189087, "combined_score_mean": 0.11959995329380035, "combined_score_max": 0.34020492434501648, "disturbed_pixel_count": 807, "bright_pixel_count": 1099, "activity_class": "COMPLETION_RIG", "confidence": "HIGH" }, "geometry": { "type": "Point", "coordinates": [ -103.636674, 31.37819 ] } },
{ "type": "Feature", "properties": { "PERMIT_NO": "900030", "LEASE_NAME": "MUSTANG SPRINGS 23-57", "OPERATOR_NAME": "APACHE CORP", "lat": 31.426022, "lon": -103.619058, "SPUD_DATE": "20260120", "ndvi_change_mean": -0.10767664015293121, "ndvi_change_min": -0.49090909957885742, "brightness_change_mean": 0.072452612221240997, "brightness_change_max": 0.25677809119224548, "combined_score_mean": 0.093587033450603485, "combined_score_max": 0.34356230497360229, "disturbed_pixel_count": 672, "bright_pixel_count": 858, "activity_class": "COMPLETION_RIG", "confidence": "HIGH" }, "geometry": { "type": "Point", "coordinates": [ -103.619058, 31.426022 ] } },
{ "type": "Feature", "properties": { "PERMIT_NO": "900031", "LEASE_NAME": "LOWER WOLFCAMP 42-34", "OPERATOR_NAME": "CONOCOPHILLIPS", "lat": 31.306915, "lon": -103.581597, "SPUD_DATE": "20251104", "ndvi_change_mean": -0.0026557778473943472, "ndvi_change_min": -0.44219434261322021, "brightness_change_mean": 0.00011498169624246657, "brightness_change_max": 0.058629289269447327, "combined_score_mean": 0.0016394593985751271, "combined_score_max": 0.27131757140159607, "disturbed_pixel_count": 197, "bright_pixel_count": 0, "activity_class": "COMPLETION_RIG", "confidence": "HIGH" }, "geometry": { "type": "Point", "coordinates": [ -103.581597, 31.306915 ] } },
{ "type": "Feature", "properties": { "PERMIT_NO": "900032", "LEASE_NAME": "CEDAR LAKE 10-18", "OPERATOR_NAME": "CONOCOPHILLIPS", "lat": 31.238469, "lon": -103.612874, "SPUD_DATE": "20260104", "ndvi_change_mean": 0.0029049080330878496, "ndvi_change_min": -0.43918958306312561, "brightness_change_mean": 2.9426841138047166e-05, "brightness_change_max": 0.052261203527450562, "combined_score_mean": -0.0017311745323240757, "combined_score_max": 0.26979348063468933, "disturbed_pixel_count": 180, "bright_pixel_count": 0, "activity_class": "COMPLETION_RIG", "confidence": "HIGH" }, "geometry": { "type": "Point", "coordinates": [ -103.612874, 31.238469 ] } },
{ "type": "Feature", "properties": { "PERMIT_NO": "900033", "LEASE_NAME": "FIRST BONE 04-06", "OPERATOR_NAME": "CONOCOPHILLIPS", "lat": 31.298165, "lon": -103.485146, "SPUD_DATE": "20251111", "ndvi_change_mean": 0.0027940243016928434, "ndvi_change_min": -0.40201732516288757, "brightness_change_mean": -0.00079468026524409652, "brightness_change_max": 0.059574194252490997, "combined_score_mean": -0.0019942864309996367, "combined_score_max": 0.242937371134758, "disturbed_pixel_count": 177, "bright_pixel_count": 0, "activity_class": "COMPLETION_RIG", "confidence": "HIGH" }, "geometry": { "type": "Point", "coordinates": [ -103.485146, 31.298165 ] } },
{ "type": "Feature", "properties": { "PERMIT_NO": "900034", "LEASE_NAME": "SIDEWINDER 36-46", "OPERATOR_NAME": "CONOCOPHILLIPS", "lat": 31.376768, "lon": -103.604147, "SPUD_DATE": "20251104", "ndvi_change_mean": -4.5758857595501468e-05, "ndvi_change_min": -0.41932493448257446, "brightness_change_mean": 0.00016851209511514753, "brightness_change_max": 0.046852335333824158, "combined_score_mean": 9.4860493845771998e-05, "combined_score_max": 0.25544849038124084, "disturbed_pixel_count": 192, "bright_pixel_count": 0, "activity_class": "COMPLETION_RIG", "confidence": "HIGH" }, "geometry": { "type": "Point", "coordinates": [ -103.604147, 31.376768 ] } },
{ "type": "Feature", "properties": { "PERMIT_NO": "900035", "LEASE_NAME": "CEDAR LAKE 10-28", "OPERATOR_NAME": "CONOCOPHILLIPS", "lat": 31.225765, "lon": -103.570925, "SPUD_DATE": "20260107", "ndvi_change_mean": -0.10241159796714783, "ndvi_change_min": -0.52112853527069092, "brightness_change_mean": 0.071691818535327911, "brightness_change_max": 0.2326379120349884, "combined_score_mean": 0.090123683214187622, "combined_score_max": 0.37269729375839233, "disturbed_pixel_count": 653, "bright_pixel_count": 854, "activity_class": "COMPLETION_RIG", "confidence": "HIGH" }, "geometry": { "type": "Point", "coordinates": [ -103.570925, 31.225765 ] } },
{ "type": "Feature", "properties": { "PERMIT_NO": "900036", "LEASE_NAME": "RED HILLS 23-50", "OPERATOR_NAME": "CONOCOPHILLIPS", "lat": 31.253612, "lon": -103.590075, "SPUD_DATE": null, "ndvi_change_mean": -0.0020262449979782104, "ndvi_change_min": -0.45577135682106018, "brightness_change_mean": -0.00010084204404847696, "brightness_change_max": 0.052221126854419708, "combined_score_mean": 0.0011754099978134036, "combined_score_max": 0.27957120537757874, "disturbed_pixel_count": 185, "bright_pixel_count": 0, "activity_class": "PAD_CONSTRUCTION", "confidence": "LOW" }, "geometry": { "type": "Point", "coordinates": [ -103.590075, 31.253612 ] } },
{ "type": "Feature", "properties": { "PERMIT_NO": "900037", "LEASE_NAME": "UNIVERSITY LANDS 12-48", "OPERATOR_NAME": "CONOCOPHILLIPS", "lat": 31.349723, "lon": -103.488973, "SPUD_DATE": "20260128", "ndvi_change_mean": -0.10456527769565582, "ndvi_change_min": -0.50104880332946777, "brightness_change_mean": 0.071753814816474915, "brightness_change_max": 0.24611321091651917, "combined_score_mean": 0.091440699994564056, "combined_score_max": 0.3594014048576355, "disturbed_pixel_count": 667, "bright_pixel_count": 845, "activity_class": "DRILLING_RIG", "confidence": "HIGH" }, "geometry": { "type": "Point", "coordinates": [ -103.488973, 31.349723 ] } },
{ "type": "Feature", "properties": { "PERMIT_NO": "900038", "LEASE_NAME": "APACHE DRAW 15-13", "OPERATOR_NAME": "CONOCOPHILLIPS", "lat": 31.281207, "lon": -103.623804, "SPUD_DATE": null, "ndvi_change_mean": 0.00053148868028074503, "ndvi_change_min": -0.39892467856407166, "brightness_change_mean": -0.00016059660993050784, "brightness_change_max": 0.051065981388092041, "combined_score_mean": -0.00038313187542371452, "combined_score_max": 0.2564084529876709, "disturbed_pixel_count": 185, "bright_pixel_count": 0, "activity_class": "PAD_CONSTRUCTION", "confidence": "LOW" }, "geometry": { "type": "Point", "coordinates": [ -103.623804, 31.281207 ] } },
{ "type": "Feature", "properties": { "PERMIT_NO": "900039", "LEASE_NAME": "WOLFCAMP 26-22", "OPERATOR_NAME": "CONOCOPHILLIPS", "lat": 31.256415, "lon": -103.626214, "SPUD_DATE": "20260122", "ndvi_change_mean": -0.10339994728565216, "ndvi_change_min": -0.51665693521499634, "brightness_change_mean": 0.07233448326587677, "brightness_change_max": 0.24354863166809082, "combined_score_mean": 0.090973757207393646, "combined_score_max": 0.35965457558631897, "disturbed_pixel_count": 656, "bright_pixel_count": 863, "activity_class": "COMPLETION_RIG", "confidence": "HIGH" }, "geometry": { "type": "Point", "coordinates": [ -103.626214, 31.256415 ] } },
{ "type": "Feature", "properties": { "PERMIT_NO": "900040", "LEASE_NAME": "TOYAH CREEK 02-08", "OPERATOR_NAME": "CONOCOPHILLIPS", "lat": 31.328723, "lon": -103.495014, "SPUD_DATE": null, "ndvi_change_mean": 0.0019863247871398926, "ndvi_change_min": -0.43120580911636353, "brightness_change_mean": -0.00042003209819085896, "brightness_change_max": 0.063481137156486511, "combined_score_mean": -0.0013598077930510044, "combined_score_max": 0.27387163043022156, "disturbed_pixel_count": 176, "bright_pixel_count": 0, "activity_class": "PAD_CONSTRUCTION", "confidence": "LOW" }, "geometry": { "type": "Point", "coordinates": [ -103.495014, 31.328723 ] } },
{ "type": "Feature", "properties": { "PERMIT_NO": "900041", "LEASE_NAME": "PHANTOM RANCH 47-51", "OPERATOR_NAME": "OXY USA", "lat": 31.126121, "lon": -103.484549, "SPUD_DATE": null, "ndvi_change_mean": -0.063036508858203888, "ndvi_change_min": -0.45904910564422607, "brightness_change_mean": 0.039417080581188202, "brightness_change_max": 0.2447858452796936, "combined_score_mean": 0.053588736802339554, "combined_score_max": 0.32695096731185913, "disturbed_pixel_count": 467, "bright_pixel_count": 469, "activity_class": "PAD_CONSTRUCTION", "confidence": "LOW" }, "geometry": { "type": "Point", "coordinates": [ -103.484549, 31.126121 ] } },
{ "type": "Feature", "properties": { "PERMIT_NO": "900042", "LEASE_NAME": "GUADALUPE PASS 03-46", "OPERATOR_NAME": "OXY USA", "lat": 31.181631, "lon": -103.487746, "SPUD_DATE": null, "ndvi_change_mean": -0.0046627838164567947, "ndvi_change_min": -0.45076048374176025, "brightness_change_mean": 7.5041985837742686e-05, "brightness_change_max": 0.052508428692817688, "combined_score_mean": 0.0028276871889829636, "combined_score_max": 0.27805382013320923, "disturbed_pixel_count": 205, "bright_pixel_count": 0, "activity_class": "PAD_CONSTRUCTION", "confidence": "LOW" }, "geometry": { "type": "Point", "coordinates": [ -103.487746, 31.181631 ] } },
{ "type": "Feature", "properties": { "PERMIT_NO": "900043", "LEASE_NAME": "THIRD BONE 43-13", "OPERATOR_NAME": "OXY USA", "lat": 31.229897, "lon": -103.429558, "SPUD_DATE": null, "ndvi_change_mean": 4.228137549944222e-05, "ndvi_change_min": -0.41486203670501709, "brightness_change_mean": -0.00050899566849693656, "brightness_change_max": 0.056659162044525146, "combined_score_mean": -0.00022896725567989051, "combined_score_max": 0.2682536244392395, "disturbed_pixel_count": 162, "bright_pixel_count": 0, "activity_class": "PAD_CONSTRUCTION", "confidence": "LOW" }, "geometry": { "type": "Point", "coordinates": [ -103.429558, 31.229897 ] } },
{ "type": "Feature", "properties": { "PERMIT_NO": "900044", "LEASE_NAME": "RED HILLS 47-58", "OPERATOR_NAME": "OXY USA", "lat": 31.219705, "lon": -103.473858, "SPUD_DATE": "20260213", "ndvi_change_mean": -0.1211550161242485, "ndvi_change_min": -0.60395801067352295, "brightness_change_mean": 0.080664940178394318, "brightness_change_max": 0.24724827706813812, "combined_score_mean": 0.10495898872613907, "combined_score_max": 0.42809110879898071, "disturbed_pixel_count": 754, "bright_pixel_count": 965, "activity_class": "DRILLING_RIG", "confidence": "HIGH" }, "geometry": { "type": "Point", "coordinates": [ -103.473858, 31.219705 ] } },
{ "type": "Feature", "properties": { "PERMIT_NO": "900045", "LEASE_NAME": "SOUTH PECOS 43-25", "OPERATOR_NAME": "OXY USA", "lat": 31.167305, "lon": -103.559634, "SPUD_DATE": "20260201", "ndvi_change_mean": -0.10428931564092636, "ndvi_change_min": -0.50074458122253418, "brightness_change_mean": 0.072223909199237823, "brightness_change_max": 0.24882891774177551, "combined_score_mean": 0.091463156044483185, "combined_score_max": 0.35716432332992554, "disturbed_pixel_count": 663, "bright_pixel_count": 847, "activity_class": "DRILLING_RIG", "confidence": "HIGH" }, "geometry": { "type": "Point", "coordinates": [ -103.559634, 31.167305 ] } },
{ "type": "Feature", "properties": { "PERMIT_NO": "900046", "LEASE_NAME": "MENTONE 39-42", "OPERATOR_NAME": "OXY USA", "lat": 31.165906, "lon": -103.511218, "SPUD_DATE": "20260207", "ndvi_change_mean": -0.11000139266252518, "ndvi_change_min": -0.53680926561355591, "brightness_change_mean": 0.072721026837825775, "brightness_change_max": 0.24392962455749512, "combined_score_mean": 0.095089241862297058, "combined_score_max": 0.38850557804107666, "disturbed_pixel_count": 670, "bright_pixel_count": 853, "activity_class": "DRILLING_RIG", "confidence": "HIGH" }, "geometry": { "type": "Point", "coordinates": [ -103.511218, 31.165906 ] } },
{ "type": "Feature", "properties": { "PERMIT_NO": "900047", "LEASE_NAME": "LOWER WOLFCAMP 48-11", "OPERATOR_NAME": "OXY USA", "lat": 31.19571, "lon": -103.435811, "SPUD_DATE": null, "ndvi_change_mean": -0.0033762759994715452, "ndvi_change_min": -0.47340789437294006, "brightness_change_mean": 0.00037730394979007542, "brightness_change_max": 0.054518461227416992, "combined_score_mean": 0.0021766871213912964, "combined_score_max": 0.30128651857376099, "disturbed_pixel_count": 184, "bright_pixel_count": 0, "activity_class": "PAD_CONSTRUCTION", "confidence": "LOW" }, "geometry": { "type": "Point", "coordinates": [ -103.435811, 31.19571 ] } },
{ "type": "Feature", "properties": { "PERMIT_NO": "900048", "LEASE_NAME": "UPPER WOLFCAMP 16-44", "OPERATOR_NAME": "OXY USA", "lat": 31.17363, "lon": -103.449052, "SPUD_DATE": "20260123", "ndvi_change_mean": -0.0033393632620573044, "ndvi_change_min": -0.49770268797874451, "brightness_change_mean": 9.8435215477366e-05, "brightness_change_max": 0.057380981743335724, "combined_score_mean": 0.002042992040514946, "combined_score_max": 0.31116431951522827, "disturbed_pixel_count": 184, "bright_pixel_count": 0, "activity_class": "COMPLETION_RIG", "confidence": "HIGH" }, "geometry": { "type": "Point", "coordinates": [ -103.449052, 31.17363 ] } },
{ "type": "Feature", "properties": { "PERMIT_NO": "900049", "LEASE_NAME": "SIDEWINDER 27-57", "OPERATOR_NAME": "OXY USA", "lat": 31.217804, "lon": -103.457042, "SPUD_DATE": "20260110", "ndvi_change_mean": -0.10586324334144592, "ndvi_change_min": -0.46185308694839478, "brightness_change_mean": 0.072189405560493469, "brightness_change_max": 0.24299730360507965, "combined_score_mean": 0.092393703758716583, "combined_score_max": 0.35909220576286316, "disturbed_pixel_count": 685, "bright_pixel_count": 856, "activity_class": "COMPLETION_RIG", "confidence": "HIGH" }, "geometry": { "type": "Point", "coordinates": [ -103.457042, 31.217804 ] } },
{ "type": "Feature", "properties": { "PERMIT_NO": "900050", "LEASE_NAME": "FIRST BONE 07-50", "OPERATOR_NAME": "OXY USA", "lat": 31.23002, "lon": -103.437174, "SPUD_DATE": null, "ndvi_change_mean": 0.0087386313825845718, "ndvi_change_min": -0.41982126235961914, "brightness_change_mean": -0.00037947099190205336, "brightness_change_max": 0.050604894757270813, "combined_score_mean": -0.0053949668072164059, "combined_score_max": 0.25790154933929443, "disturbed_pixel_count": 145, "bright_pixel_count": 0, "activity_class": "PAD_CONSTRUCTION", "confidence": "LOW" }, "geometry": { "type": "Point", "coordinates": [ -103.437174, 31.23002 ] } },
{ "type": "Feature", "properties": { "PERMIT_NO": "900051", "LEASE_NAME": "BONE SPRING 08-30", "OPERATOR_NAME": "EOG RESOURCES", "lat": 31.102873, "lon": -103.751965, "SPUD_DATE": "20260218", "ndvi_change_mean": -0.11079361289739609, "ndvi_change_min": -0.52415227890014648, "brightness_change_mean": 0.072468169033527374, "brightness_change_max": 0.24418599903583527, "combined_score_mean": 0.095463424921035767, "combined_score_max": 0.33203721046447754, "disturbed_pixel_count": 680, "bright_pixel_count": 854, "activity_class": "DRILLING_RIG", "confidence": "HIGH" }, "geometry": { "type": "Point", "coordinates": [ -103.751965, 31.102873 ] } },
{ "type": "Feature", "properties": { "PERMIT_NO": "900052", "LEASE_NAME": "SIDEWINDER 40-53", "OPERATOR_NAME": "EOG RESOURCES", "lat": 31.070768, "lon": -103.63916, "SPUD_DATE": null, "ndvi_change_mean": -0.00091093574883416295, "ndvi_change_min": -0.36694508790969849, "brightness_change_mean": 0.00076237472239881754, "brightness_change_max": 0.051999911665916443, "combined_score_mean": 0.00085151119856163859, "combined_score_max": 0.22819977998733521, "disturbed_pixel_count": 172, "bright_pixel_count": 0, "activity_class": "PAD_CONSTRUCTION", "confidence": "LOW" }, "geometry": { "type": "Point", "coordinates": [ -103.63916, 31.070768 ] } },
{ "type": "Feature", "properties": { "PERMIT_NO": "900053", "LEASE_NAME": "SECOND BONE 41-18", "OPERATOR_NAME": "EOG RESOURCES", "lat": 31.092011, "lon": -103.639716, "SPUD_DATE": "20260223", "ndvi_change_mean": -0.10620812326669693, "ndvi_change_min": -0.52539438009262085, "brightness_change_mean": 0.071120470762252808, "brightness_change_max": 0.23898875713348389, "combined_score_mean": 0.092173062264919281, "combined_score_max": 0.38431501388549805, "disturbed_pixel_count": 679, "bright_pixel_count": 843, "activity_class": "DRILLING_RIG", "confidence": "HIGH" }, "geometry": { "type": "Point", "coordinates": [ -103.639716, 31.092011 ] } },
{ "type": "Feature", "properties": { "PERMIT_NO": "900054", "LEASE_NAME": "CEDAR LAKE 06-09", "OPERATOR_NAME": "EOG RESOURCES", "lat": 31.057519, "lon": -103.706264, "SPUD_DATE": null, "ndvi_change_mean": -6.3087418311624788e-06, "ndvi_change_min": -0.39700210094451904, "brightness_change_mean": 5.9038102335762233e-05, "brightness_change_max": 0.054808996617794037, "combined_score_mean": 2.7400590624893084e-05, "combined_score_max": 0.24353505671024323, "disturbed_pixel_count": 176, "bright_pixel_count": 0, "activity_class": "PAD_CONSTRUCTION", "confidence": "LOW" }, "geometry": { "type": "Point", "coordinates": [ -103.706264, 31.057519 ] } },
{ "type": "Feature", "properties": { "PERMIT_NO": "900055", "LEASE_NAME": "TOYAH CREEK 35-30", "OPERATOR_NAME": "EOG RESOURCES", "lat": 31.054232, "lon": -103.693621, "SPUD_DATE": null, "ndvi_change_mean": -0.00058959604939445853, "ndvi_change_min": -0.40763837099075317, "brightness_change_mean": -0.00033420367981307209, "brightness_change_max": 0.050595924258232117, "combined_score_mean": 0.00022007622465025634, "combined_score_max": 0.25912567973136902, "disturbed_pixel_count": 170, "bright_pixel_count": 0, "activity_class": "PAD_CONSTRUCTION", "confidence": "LOW" }, "geometry": { "type": "Point", "coordinates": [ -103.693621, 31.054232 ] } },
{ "type": "Feature", "properties": { "PERMIT_NO": "900056", "LEASE_NAME": "AVALON SHALE 02-55", "OPERATOR_NAME": "EOG RESOURCES", "lat": 31.164774, "lon": -103.666547, "SPUD_DATE": null, "ndvi_change_mean": 0.00051585794426500797, "ndvi_change_min": -0.43092244863510132, "brightness_change_mean": -0.00039642571937292814, "brightness_change_max": 0.057095885276794434, "combined_score_mean": -0.00046808540355414152, "combined_score_max": 0.25918614864349365, "disturbed_pixel_count": 179, "bright_pixel_count": 0, "activity_class": "PAD_CONSTRUCTION", "confidence": "LOW" }, "geometry": { "type": "Point", "coordinates": [ -103.666547, 31.164774 ] } },
{ "type": "Feature", "properties": { "PERMIT_NO": "900057", "LEASE_NAME": "SECOND BONE 27-35", "OPERATOR_NAME": "EOG RESOURCES", "lat": 31.140556, "lon": -103.623448, "SPUD_DATE": "20260121", "ndvi_change_mean": -0.11485967040061951, "ndvi_change_min": -0.48909050226211548, "brightness_change_mean": 0.072472169995307922, "brightness_change_max": 0.24205394089221954, "combined_score_mean": 0.097904674708843231, "combined_score_max": 0.35893729329109192, "disturbed_pixel_count": 721, "bright_pixel_count": 845, "activity_class": "COMPLETION_RIG", "confidence": "HIGH" }, "geometry": { "type": "Point", "coordinates": [ -103.623448, 31.140556 ] } },
{ "type": "Feature", "properties": { "PERMIT_NO": "900058", "LEASE_NAME": "LOWER WOLFCAMP 26-47", "OPERATOR_NAME": "EOG RESOURCES", "lat": 31.082217, "lon": -103.65298, "SPUD_DATE": null, "ndvi_change_mean": -0.0013843843480572104, "ndvi_change_min": -0.49625292420387268, "brightness_change_mean": -0.00024034158559516072, "brightness_change_max": 0.056709595024585724, "combined_score_mean": 0.0007344938931055367, "combined_score_max": 0.31034225225448608, "disturbed_pixel_count": 192, "bright_pixel_count": 0, "activity_class": "PAD_CONSTRUCTION", "confidence": "LOW" }, "geometry": { "type": "Point", "coordinates": [ -103.65298, 31.082217 ] } },
{ "type": "Feature", "properties": { "PERMIT_NO": "900059", "LEASE_NAME": "MENTONE 43-02", "OPERATOR_NAME": "DEVON ENERGY", "lat": 31.274315, "lon": -103.596957, "SPUD_DATE": null, "ndvi_change_mean": -0.0010758980643004179, "ndvi_change_min": -0.47379326820373535, "brightness_change_mean": 0.00021559727611020207, "brightness_change_max": 0.051271840929985046, "combined_score_mean": 0.00073177815647795796, "combined_score_max": 0.29050502181053162, "disturbed_pixel_count": 201, "bright_pixel_count": 0, "activity_class": "PAD_CONSTRUCTION", "confidence": "LOW" }, "geometry": { "type": "Point", "coordinates": [ -103.596957, 31.274315 ] } },
{ "type": "Feature", "properties": { "PERMIT_NO": "900060", "LEASE_NAME": "WOLFCAMP 30-21", "OPERATOR_NAME": "DEVON ENERGY", "lat": 31.278046, "lon": -103.599343, "SPUD_DATE": null, "ndvi_change_mean": 0.0019469740800559521, "ndvi_change_min": -0.51304316520690918, "brightness_change_mean": 0.0007289503701031208, "brightness_change_max": 0.051271840929985046, "combined_score_mean": -0.00087660434655845165, "combined_score_max": 0.3139510452747345, "disturbed_pixel_count": 192, "bright_pixel_count": 0, "activity_class": "PAD_CONSTRUCTION", "confidence": "LOW" }, "geometry": { "type": "Point", "coordinates": [ -103.599343, 31.278046 ] } },
{ "type": "Feature", "properties": { "PERMIT_NO": "900061", "LEASE_NAME": "APACHE DRAW 02-48", "OPERATOR_NAME": "DEVON ENERGY", "lat": 31.33745, "lon": -103.526414, "SPUD_DATE": null, "ndvi_change_mean": -0.0021438340190798044, "ndvi_change_min": -0.47020936012268066, "brightness_change_mean": 0.00089311617193743587, "brightness_change_max": 0.058384470641613007, "combined_score_mean": 0.0016435468569397926, "combined_score_max": 0.28174787759780884, "disturbed_pixel_count": 174, "bright_pixel_count": 0, "activity_class": "PAD_CONSTRUCTION", "confidence": "LOW" }, "geometry": { "type": "Point", "coordinates": [ -103.526414, 31.33745 ] } },
{ "type": "Feature", "properties": { "PERMIT_NO": "900062", "LEASE_NAME": "UNIVERSITY LANDS 16-13", "OPERATOR_NAME": "DEVON ENERGY", "lat": 31.423166, "lon": -103.653559, "SPUD_DATE": "20260103", "ndvi_change_mean": -0.01876428909599781, "ndvi_change_min": -0.42631310224533081, "brightness_change_mean": 0.011542784981429577, "brightness_change_max": 0.16606754064559937, "combined_score_mean": 0.015875685960054398, "combined_score_max": 0.31723567843437195, "disturbed_pixel_count": 272, "bright_pixel_count": 148, "activity_class": "COMPLETION_RIG", "confidence": "HIGH" }, "geometry": { "type": "Point", "coordinates": [ -103.653559, 31.423166 ] } },
{ "type": "Feature", "properties": { "PERMIT_NO": "900063", "LEASE_NAME": "GUADALUPE PASS 24-11", "OPERATOR_NAME": "DEVON ENERGY", "lat": 31.421641, "lon": -103.585595, "SPUD_DATE": "20251229", "ndvi_change_mean": -0.00074488029349595308, "ndvi_change_min": -0.4772208034992218, "brightness_change_mean": 0.0003142978239338845, "brightness_change_max": 0.058927744626998901, "combined_score_mean": 0.00057264708448201418, "combined_score_max": 0.29850855469703674, "disturbed_pixel_count": 199, "bright_pixel_count": 0, "activity_class": "COMPLETION_RIG", "confidence": "HIGH" }, "geometry": { "type": "Point", "coordinates": [ -103.585595, 31.421641 ] } },
{ "type": "Feature", "properties": { "PERMIT_NO": "900064", "LEASE_NAME": "BALMORHEA 46-13", "OPERATOR_NAME": "DEVON ENERGY", "lat": 31.378376, "lon": -103.506692, "SPUD_DATE": null, "ndvi_change_mean": 0.00098129943944513798, "ndvi_change_min": -0.5157586932182312, "brightness_change_mean": -2.0330920960986987e-05, "brightness_change_max": 0.053569585084915161, "combined_score_mean": -0.00059691187925636768, "combined_score_max": 0.31973761320114136, "disturbed_pixel_count": 157, "bright_pixel_count": 0, "activity_class": "PAD_CONSTRUCTION", "confidence": "LOW" }, "geometry": { "type": "Point", "coordinates": [ -103.506692, 31.378376 ] } },
{ "type": "Feature", "properties": { "PERMIT_NO": "900065", "LEASE_NAME": "RED HILLS 37-51", "OPERATOR_NAME": "DEVON ENERGY", "lat": 31.406047, "lon": -103.563934, "SPUD_DATE": "20260212", "ndvi_change_mean": -0.10747098922729492, "ndvi_change_min": -0.46842473745346069, "brightness_change_mean": 0.072256624698638916, "brightness_change_max": 0.24384893476963043, "combined_score_mean": 0.093385249376296997, "combined_score_max": 0.33633539080619812, "disturbed_pixel_count": 691, "bright_pixel_count": 851, "activity_class": "DRILLING_RIG", "confidence": "HIGH" }, "geometry": { "type": "Point", "coordinates": [ -103.563934, 31.406047 ] } },
{ "type": "Feature", "properties": { "PERMIT_NO": "900066", "LEASE_NAME": "FIRST BONE 27-53", "OPERATOR_NAME": "CENTENNIAL RESOURCE", "lat": 31.250954, "lon": -103.505403, "SPUD_DATE": null, "ndvi_change_mean": 0.0015072869136929512, "ndvi_change_min": -0.4349137544631958, "brightness_change_mean": -0.00014341458154376596, "brightness_change_max": 0.052259683609008789, "combined_score_mean": -0.00096173788188025355, "combined_score_max": 0.27733626961708069, "disturbed_pixel_count": 186, "bright_pixel_count": 0, "activity_class": "PAD_CONSTRUCTION", "confidence": "LOW" }, "geometry": { "type": "Point", "coordinates": [ -103.505403, 31.250954 ] } },
{ "type": "Feature", "properties": { "PERMIT_NO": "900067", "LEASE_NAME": "MUSTANG SPRINGS 28-12", "OPERATOR_NAME": "CENTENNIAL RESOURCE", "lat": 31.312652, "lon": -103.486442, "SPUD_DATE": "20260224", "ndvi_change_mean": -0.10900712758302689, "ndvi_change_min": -0.46581366658210754, "brightness_change_mean": 0.07346874475479126, "brightness_change_max": 0.24620479345321655, "combined_score_mean": 0.094791784882545471, "combined_score_max": 0.33527374267578125, "disturbed_pixel_count": 692, "bright_pixel_count": 860, "activity_class": "DRILLING_RIG", "confidence": "HIGH" }, "geometry": { "type": "Point", "coordinates": [ -103.486442, 31.312652 ] } },
{ "type": "Feature", "properties": { "PERMIT_NO": "900068", "LEASE_NAME": "SECOND BONE 06-18", "OPERATOR_NAME": "CENTENNIAL RESOURCE", "lat": 31.212943, "lon": -103.423726, "SPUD_DATE": "20260222", "ndvi_change_mean": -0.10829412192106247, "ndvi_change_min": -0.47604519128799438, "brightness_change_mean": 0.072447106242179871, "brightness_change_max": 0.25124573707580566, "combined_score_mean": 0.093955323100090027, "combined_score_max": 0.34626439213752747, "disturbed_pixel_count": 684, "bright_pixel_count": 860, "activity_class": "DRILLING_RIG", "confidence": "HIGH" }, "geometry": { "type": "Point", "coordinates": [ -103.423726, 31.212943 ] } },
{ "type": "Feature", "properties": { "PERMIT_NO": "900069", "LEASE_NAME": "TOYAH CREEK 12-32", "OPERATOR_NAME": "CENTENNIAL RESOURCE", "lat": 31.223823, "lon": -103.480911, "SPUD_DATE": "20260125", "ndvi_change_mean": -0.11806364357471466, "ndvi_change_min": -0.49277734756469727, "brightness_change_mean": 0.080029904842376709, "brightness_change_max": 0.2529049813747406, "combined_score_mean": 0.10285015404224396, "combined_score_max": 0.34921747446060181, "disturbed_pixel_count": 728, "bright_pixel_count": 956, "activity_class": "DRILLING_RIG", "confidence": "HIGH" }, "geometry": { "type": "Point", "coordinates": [ -103.480911, 31.223823 ] } },
{ "type": "Feature", "properties": { "PERMIT_NO": "900070", "LEASE_NAME": "SAND HILLS 13-06", "OPERATOR_NAME": "CENTENNIAL RESOURCE", "lat": 31.310817, "lon": -103.471073, "SPUD_DATE": "20260208", "ndvi_change_mean": -0.11096266657114029, "ndvi_change_min": -0.51115959882736206, "brightness_change_mean": 0.072753302752971649, "brightness_change_max": 0.24676172435283661, "combined_score_mean": 0.095678918063640594, "combined_score_max": 0.37051847577095032, "disturbed_pixel_count": 679, "bright_pixel_count": 860, "activity_class": "DRILLING_RIG", "confidence": "HIGH" }, "geometry": { "type": "Point", "coordinates": [ -103.471073, 31.310817 ] } },
{ "type": "Feature", "properties": { "PERMIT_NO": "900071", "LEASE_NAME": "SIDEWINDER 02-06", "OPERATOR_NAME": "CENTENNIAL RESOURCE", "lat": 31.246175, "lon": -103.446105, "SPUD_DATE": null, "ndvi_change_mean": -0.0029039266519248486, "ndvi_change_min": -0.38685095310211182, "brightness_change_mean": 0.00037272684858180583, "brightness_change_max": 0.054784387350082397, "combined_score_mean": 0.0018914473475888371, "combined_score_max": 0.24302096664905548, "disturbed_pixel_count": 197, "bright_pixel_count": 0, "activity_class": "PAD_CONSTRUCTION", "confidence": "LOW" }, "geometry": { "type": "Point", "coordinates": [ -103.446105, 31.246175 ] } },
{ "type": "Feature", "properties": { "PERMIT_NO": "900072", "LEASE_NAME": "CEDAR LAKE 34-23", "OPERATOR_NAME": "PIONEER NATURAL RES", "lat": 31.426234, "lon": -103.590957, "SPUD_DATE": null, "ndvi_change_mean": 0.0030119628645479679, "ndvi_change_min": -0.48703774809837341, "brightness_change_mean": 0.0004501405346672982, "brightness_change_max": 0.058927744626998901, "combined_score_mean": -0.0016271212371066213, "combined_score_max": 0.30405968427658081, "disturbed_pixel_count": 171, "bright_pixel_count": 0, "activity_class": "PAD_CONSTRUCTION", "confidence": "LOW" }, "geometry": { "type": "Point", "coordinates": [ -103.590957, 31.426234 ] } },
{ "type": "Feature", "properties": { "PERMIT_NO": "900073", "LEASE_NAME": "THIRD BONE 13-21", "OPERATOR_NAME": "PIONEER NATURAL RES", "lat": 31.36906, "lon": -103.613114, "SPUD_DATE": "20260109", "ndvi_change_mean": 0.0065782233141362667, "ndvi_change_min": -0.40274137258529663, "brightness_change_mean": 8.6451917013619095e-05, "brightness_change_max": 0.060046806931495667, "combined_score_mean": -0.0039123534224927425, "combined_score_max": 0.26566356420516968, "disturbed_pixel_count": 171, "bright_pixel_count": 0, "activity_class": "COMPLETION_RIG", "confidence": "HIGH" }, "geometry": { "type": "Point", "coordinates": [ -103.613114, 31.36906 ] } },
{ "type": "Feature", "properties": { "PERMIT_NO": "900074", "LEASE_NAME": "BELL CANYON 19-07", "OPERATOR_NAME": "PIONEER NATURAL RES", "lat": 31.414334, "lon": -103.528367, "SPUD_DATE": "20260115", "ndvi_change_mean": -0.1049848347902298, "ndvi_change_min": -0.45059436559677124, "brightness_change_mean": 0.071841023862361908, "brightness_change_max": 0.24537108838558197, "combined_score_mean": 0.091727316379547119, "combined_score_max": 0.32601228356361389, "disturbed_pixel_count": 661, "bright_pixel_count": 861, "activity_class": "COMPLETION_RIG", "confidence": "HIGH" }, "geometry": { "type": "Point", "coordinates": [ -103.528367, 31.414334 ] } },
{ "type": "Feature", "properties": { "PERMIT_NO": "900075", "LEASE_NAME": "STATE 04-36", "OPERATOR_NAME": "PIONEER NATURAL RES", "lat": 31.433283, "lon": -103.629747, "SPUD_DATE": null, "ndvi_change_mean": -0.0022710517514497042, "ndvi_change_min": -0.3948395848274231, "brightness_change_mean": -0.00011042505502700806, "brightness_change_max": 0.047019019722938538, "combined_score_mean": 0.0013184606796130538, "combined_score_max": 0.25571137666702271, "disturbed_pixel_count": 193, "bright_pixel_count": 0, "activity_class": "PAD_CONSTRUCTION", "confidence": "LOW" }, "geometry": { "type": "Point", "coordinates": [ -103.629747, 31.433283 ] } },
{ "type": "Feature", "properties": { "PERMIT_NO": "900076", "LEASE_NAME": "RATTLESNAKE 31-31", "OPERATOR_NAME": "PIONEER NATURAL RES", "lat": 31.336414, "lon": -103.648038, "SPUD_DATE": null, "ndvi_change_mean": -0.0011016919743269682, "ndvi_change_min": -0.42148175835609436, "brightness_change_mean": 0.00032029717112891376, "brightness_change_max": 0.06424250453710556, "combined_score_mean": 0.00078913418110460043, "combined_score_max": 0.26341298222541809, "disturbed_pixel_count": 188, "bright_pixel_count": 0, "activity_class": "PAD_CONSTRUCTION", "confidence": "LOW" }, "geometry": { "type": "Point", "coordinates": [ -103.648038, 31.336414 ] } },
{ "type": "Feature", "properties": { "PERMIT_NO": "900077", "LEASE_NAME": "SECOND BONE 05-26", "OPERATOR_NAME": "RING ENERGY", "lat": 31.25057, "lon": -103.533563, "SPUD_DATE": null, "ndvi_change_mean": -0.0021844303701072931, "ndvi_change_min": -0.38433957099914551, "brightness_change_mean": 0.00016669518663547933, "brightness_change_max": 0.052351891994476318, "combined_score_mean": 0.0013773362152278423, "combined_score_max": 0.22232525050640106, "disturbed_pixel_count": 195, "bright_pixel_count": 0, "activity_class": "PAD_CONSTRUCTION", "confidence": "LOW" }, "geometry": { "type": "Point", "coordinates": [ -103.533563, 31.25057 ] } },
{ "type": "Feature", "properties": { "PERMIT_NO": "900078", "LEASE_NAME": "RATTLESNAKE 06-16", "OPERATOR_NAME": "RING ENERGY", "lat": 31.124276, "lon": -103.480217, "SPUD_DATE": "20260220", "ndvi_change_mean": -0.10988916456699371, "ndvi_change_min": -0.45904910564422607, "brightness_change_mean": 0.072217971086502075, "brightness_change_max": 0.2447858452796936, "combined_score_mean": 0.094820693135261536, "combined_score_max": 0.32695096731185913, "disturbed_pixel_count": 678, "bright_pixel_count": 856, "activity_class": "DRILLING_RIG", "confidence": "HIGH" }, "geometry": { "type": "Point", "coordinates": [ -103.480217, 31.124276 ] } },
{ "type": "Feature", "properties": { "PERMIT_NO": "900079", "LEASE_NAME": "SIDEWINDER 20-56", "OPERATOR_NAME": "RING ENERGY", "lat": 31.224111, "lon": -103.54914, "SPUD_DATE": null, "ndvi_change_mean": 0.00033150182571262121, "ndvi_change_min": -0.4565618634223938, "brightness_change_mean": -3.937784640584141e-05, "brightness_change_max": 0.056292176246643066, "combined_score_mean": -0.00021465196914505213, "combined_score_max": 0.27383318543434143, "disturbed_pixel_count": 187, "bright_pixel_count": 0, "activity_class": "PAD_CONSTRUCTION", "confidence": "LOW" }, "geometry": { "type": "Point", "coordinates": [ -103.54914, 31.224111 ] } },
{ "type": "Feature", "properties": { "PERMIT_NO": "900080", "LEASE_NAME": "UPPER WOLFCAMP 14-41", "OPERATOR_NAME": "RING ENERGY", "lat": 31.253617, "lon": -103.594123, "SPUD_DATE": "20251215", "ndvi_change_mean": -0.0018255922477692366, "ndvi_change_min": -0.45577135682106018, "brightness_change_mean": -2.4709814169909805e-05, "brightness_change_max": 0.051207907497882843, "combined_score_mean": 0.0010854715947061777, "combined_score_max": 0.27796432375907898, "disturbed_pixel_count": 176, "bright_pixel_count": 0, "activity_class": "COMPLETION_RIG", "confidence": "HIGH" }, "geometry": { "type": "Point", "coordinates": [ -103.594123, 31.253617 ] } },
{ "type": "Feature", "properties": { "PERMIT_NO": "900081", "LEASE_NAME": "SIDEWINDER 45-39", "OPERATOR_NAME": "CHEVRON USA", "lat": 30.98201, "lon": -103.799572, "SPUD_DATE": "20260102", "ndvi_change_mean": -0.00082654994912445545, "ndvi_change_min": -0.42836606502532959, "brightness_change_mean": 0.00030085217440500855, "brightness_change_max": 0.056392364203929901, "combined_score_mean": 0.00061627087416127324, "combined_score_max": 0.27160549163818359, "disturbed_pixel_count": 176, "bright_pixel_count": 0, "activity_class": "COMPLETION_RIG", "confidence": "HIGH" }, "geometry": { "type": "Point", "coordinates": [ -103.799572, 30.98201 ] } },
{ "type": "Feature", "properties": { "PERMIT_NO": "900082", "LEASE_NAME": "BONE SPRING 17-51", "OPERATOR_NAME": "CHEVRON USA", "lat": 31.107537, "lon": -103.788611, "SPUD_DATE": "20260221", "ndvi_change_mean": -0.10837671160697937, "ndvi_change_min": -0.53105688095092773, "brightness_change_mean": 0.072238251566886902, "brightness_change_max": 0.24865067005157471, "combined_score_mean": 0.09392133355140686, "combined_score_max": 0.37827923893928528, "disturbed_pixel_count": 671, "bright_pixel_count": 843, "activity_class": "DRILLING_RIG", "confidence": "HIGH" }, "geometry": { "type": "Point", "coordinates": [ -103.788611, 31.107537 ] } },
{ "type": "Feature", "properties": { "PERMIT_NO": "900083", "LEASE_NAME": "PECOS VALLEY 04-11", "OPERATOR_NAME": "CHEVRON USA", "lat": 31.115346, "lon": -103.667739, "SPUD_DATE": "20260102", "ndvi_change_mean": 0.00091196270659565926, "ndvi_change_min": -0.41746875643730164, "brightness_change_mean": -0.00046457507414743304, "brightness_change_max": 0.051079072058200836, "combined_score_mean": -0.0007330075022764504, "combined_score_max": 0.26479035615921021, "disturbed_pixel_count": 195, "bright_pixel_count": 0, "activity_class": "COMPLETION_RIG", "confidence": "HIGH" }, "geometry": { "type": "Point", "coordinates": [ -103.667739, 31.115346 ] } },
{ "type": "Feature", "properties": { "PERMIT_NO": "900084", "LEASE_NAME": "CEDAR LAKE 32-29", "OPERATOR_NAME": "CHEVRON USA", "lat": 31.034401, "lon": -103.756441, "SPUD_DATE": null, "ndvi_change_mean": -0.0017990630585700274, "ndvi_change_min": -0.40423029661178589, "brightness_change_mean": 0.00035569645115174353, "brightness_change_max": 0.048528991639614105, "combined_score_mean": 0.0012217168696224689, "combined_score_max": 0.24992871284484863, "disturbed_pixel_count": 176, "bright_pixel_count": 0, "activity_class": "PAD_CONSTRUCTION", "confidence": "LOW" }, "geometry": { "type": "Point", "coordinates": [ -103.756441, 31.034401 ] } },
{ "type": "Feature", "properties": { "PERMIT_NO": "900085", "LEASE_NAME": "BRUSHY CANYON 37-38", "OPERATOR_NAME": "MARATHON OIL", "lat": 31.240059, "lon": -103.715388, "SPUD_DATE": "20251112", "ndvi_change_mean": 0.0016356757842004299, "ndvi_change_min": -0.39729470014572144, "brightness_change_mean": 0.0006944767665117979, "brightness_change_max": 0.053727030754089355, "combined_score_mean": -0.00070361507823690772, "combined_score_max": 0.24766218662261963, "disturbed_pixel_count": 192, "bright_pixel_count": 0, "activity_class": "COMPLETION_RIG", "confidence": "HIGH" }, "geometry": { "type": "Point", "coordinates": [ -103.715388, 31.240059 ] } },
{ "type": "Feature", "properties": { "PERMIT_NO": "900086", "LEASE_NAME": "GUADALUPE PASS 12-38", "OPERATOR_NAME": "MARATHON OIL", "lat": 31.283034, "lon": -103.659243, "SPUD_DATE": "20260214", "ndvi_change_mean": -0.10588581115007401, "ndvi_change_min": -0.46651703119277954, "brightness_change_mean": 0.072525657713413239, "brightness_change_max": 0.24982595443725586, "combined_score_mean": 0.092541754245758057, "combined_score_max": 0.34075960516929626, "disturbed_pixel_count": 662, "bright_pixel_count": 859, "activity_class": "DRILLING_RIG", "confidence": "HIGH" }, "geometry": { "type": "Point", "coordinates": [ -103.659243, 31.283034 ] } },
{ "type": "Feature", "properties": { "PERMIT_NO": "900087", "LEASE_NAME": "DELAWARE MOUNTAIN 22-27", "OPERATOR_NAME": "MARATHON OIL", "lat": 31.251369, "lon": -103.713264, "SPUD_DATE": null, "ndvi_change_mean": 0.0010265929158776999, "ndvi_change_min": -0.50235950946807861, "brightness_change_mean": 7.4170158768538386e-05, "brightness_change_max": 0.056448176503181458, "combined_score_mean": -0.00058628787519410253, "combined_score_max": 0.30869084596633911, "disturbed_pixel_count": 167, "bright_pixel_count": 0, "activity_class": "PAD_CONSTRUCTION", "confidence": "LOW" }, "geometry": { "type": "Point", "coordinates": [ -103.713264, 31.251369 ] } },
{ "type": "Feature", "properties": { "PERMIT_NO": "900088", "LEASE_NAME": "PECOS VALLEY 21-17", "OPERATOR_NAME": "CIMAREX ENERGY", "lat": 31.36168, "lon": -103.774128, "SPUD_DATE": null, "ndvi_change_mean": -0.00097169756190851331, "ndvi_change_min": -0.41694176197052002, "brightness_change_mean": 0.00011943047866225243, "brightness_change_max": 0.053839176893234253, "combined_score_mean": 0.00063079089159145951, "combined_score_max": 0.24967046082019806, "disturbed_pixel_count": 179, "bright_pixel_count": 0, "activity_class": "PAD_CONSTRUCTION", "confidence": "LOW" }, "geometry": { "type": "Point", "coordinates": [ -103.774128, 31.36168 ] } },
{ "type": "Feature", "properties": { "PERMIT_NO": "900089", "LEASE_NAME": "CEDAR LAKE 30-27", "OPERATOR_NAME": "CIMAREX ENERGY", "lat": 31.398099, "lon": -103.674774, "SPUD_DATE": "20260121", "ndvi_change_mean": -0.10529351979494095, "ndvi_change_min": -0.64855468273162842, "brightness_change_mean": 0.071752503514289856, "brightness_change_max": 0.24983511865139008, "combined_score_mean": 0.09187711775302887, "combined_score_max": 0.44228449463844299, "disturbed_pixel_count": 665, "bright_pixel_count": 850, "activity_class": "COMPLETION_RIG", "confidence": "HIGH" }, "geometry": { "type": "Point", "coordinates": [ -103.674774, 31.398099 ] } },
{ "type": "Feature", "properties": { "PERMIT_NO": "900090", "LEASE_NAME": "GUADALUPE PASS 36-09", "OPERATOR_NAME": "CIMAREX ENERGY", "lat": 31.310727, "lon": -103.771742, "SPUD_DATE": "20260104", "ndvi_change_mean": -0.0009980861796066165, "ndvi_change_min": -0.44247144460678101, "brightness_change_mean": 2.0264442355255596e-05, "brightness_change_max": 0.05431663990020752, "combined_score_mean": 0.00060695805586874485, "combined_score_max": 0.26836973428726196, "disturbed_pixel_count": 172, "bright_pixel_count": 0, "activity_class": "COMPLETION_RIG", "confidence": "HIGH" }, "geometry": { "type": "Point", "coordinates": [ -103.771742, 31.310727 ] } },
{ "type": "Feature", "properties": { "PERMIT_NO": "900091", "LEASE_NAME": "CEDAR LAKE 01-36", "OPERATOR_NAME": "MEWBOURNE OIL", "lat": 31.408288, "lon": -103.604659, "SPUD_DATE": null, "ndvi_change_mean": 0.0027482276782393456, "ndvi_change_min": -0.37663742899894714, "brightness_change_mean": 4.8680733016226441e-05, "brightness_change_max": 0.057225309312343597, "combined_score_mean": -0.0016294647939503193, "combined_score_max": 0.23993769288063049, "disturbed_pixel_count": 184, "bright_pixel_count": 0, "activity_class": "PAD_CONSTRUCTION", "confidence": "LOW" }, "geometry": { "type": "Point", "coordinates": [ -103.604659, 31.408288 ] } },
{ "type": "Feature", "properties": { "PERMIT_NO": "900092", "LEASE_NAME": "SECOND BONE 10-32", "OPERATOR_NAME": "MEWBOURNE OIL", "lat": 31.443832, "lon": -103.611205, "SPUD_DATE": null, "ndvi_change_mean": 0.002008525189012289, "ndvi_change_min": -0.48700070381164551, "brightness_change_mean": -0.00033260579220950603, "brightness_change_max": 0.042989686131477356, "combined_score_mean": -0.0013381576864048839, "combined_score_max": 0.28940245509147644, "disturbed_pixel_count": 159, "bright_pixel_count": 0, "activity_class": "PAD_CONSTRUCTION", "confidence": "LOW" }, "geometry": { "type": "Point", "coordinates": [ -103.611205, 31.443832 ] } },
{ "type": "Feature", "properties": { "PERMIT_NO": "900093", "LEASE_NAME": "BALMORHEA 13-59", "OPERATOR_NAME": "FASKEN OIL", "lat": 31.438997, "lon": -103.571798, "SPUD_DATE": null, "ndvi_change_mean": 0.002564313355833292, "ndvi_change_min": -0.40335407853126526, "brightness_change_mean": -0.000271851837169379, "brightness_change_max": 0.050771139562129974, "combined_score_mean": -0.0016473287250846624, "combined_score_max": 0.25647503137588501, "disturbed_pixel_count": 167, "bright_pixel_count": 0, "activity_class": "PAD_CONSTRUCTION", "confidence": "LOW" }, "geometry": { "type": "Point", "coordinates": [ -103.571798, 31.438997 ] } },
{ "type": "Feature", "properties": { "PERMIT_NO": "900094", "LEASE_NAME": "SAND HILLS 18-53", "OPERATOR_NAME": "FASKEN OIL", "lat": 31.466391, "lon": -103.51052, "SPUD_DATE": null, "ndvi_change_mean": 0.0030835662037134171, "ndvi_change_min": -0.39467239379882812, "brightness_change_mean": -0.0002337154874112457, "brightness_change_max": 0.052917048335075378, "combined_score_mean": -0.0019436260918155313, "combined_score_max": 0.24343025684356689, "disturbed_pixel_count": 165, "bright_pixel_count": 0, "activity_class": "PAD_CONSTRUCTION", "confidence": "LOW" }, "geometry": { "type": "Point", "coordinates": [ -103.51052, 31.466391 ] } },
{ "type": "Feature", "properties": { "PERMIT_NO": "900095", "LEASE_NAME": "MUSTANG SPRINGS 29-35", "OPERATOR_NAME": "COLGATE ENERGY", "lat": 31.229824, "lon": -103.601658, "SPUD_DATE": "20260218", "ndvi_change_mean": -0.10595419257879257, "ndvi_change_min": -0.51108694076538086, "brightness_change_mean": 0.071351759135723114, "brightness_change_max": 0.25101053714752197, "combined_score_mean": 0.092113219201564789, "combined_score_max": 0.36723163723945618, "disturbed_pixel_count": 674, "bright_pixel_count": 849, "activity_class": "DRILLING_RIG", "confidence": "HIGH" }, "geometry": { "type": "Point", "coordinates": [ -103.601658, 31.229824 ] } },
{ "type": "Feature", "properties": { "PERMIT_NO": "900096", "LEASE_NAME": "WOLFCAMP 45-16", "OPERATOR_NAME": "COLGATE ENERGY", "lat": 31.142855, "lon": -103.628516, "SPUD_DATE": "20251113", "ndvi_change_mean": -0.051129471510648727, "ndvi_change_min": -0.47043144702911377, "brightness_change_mean": 0.031170519068837166, "brightness_change_max": 0.2313789576292038, "combined_score_mean": 0.043145891278982162, "combined_score_max": 0.34090191125869751, "disturbed_pixel_count": 415, "bright_pixel_count": 369, "activity_class": "COMPLETION_RIG", "confidence": "HIGH" }, "geometry": { "type": "Point", "coordinates": [ -103.628516, 31.142855 ] } }
]
}
